[{"OBJECT_NAME":"NUSAT-35 (WILLIAMINA)","OBJECT_ID":"2023-001AR","EPOCH":"2026-03-09T22:28:40.425600","MEAN_MOTION":15.3245616,"ECCENTRICITY":0.00136635,"INCLINATION":97.1993,"RA_OF_ASC_NODE":124.278,"ARG_OF_PERICENTER":97.0313,"MEAN_ANOMALY":263.2484,"EPHEMERIS_TYPE":0,"CLASSIFICATION_TYPE":"U","NORAD_CAT_ID":55048,"ELEMENT_SET_NO":999,"REV_AT_EPOCH":17719,"BSTAR":0.00053479647,"MEAN_MOTION_DOT":0.0001675,"MEAN_MOTION_DDOT":0},{"OBJECT_NAME":"STARLINK-35446","OBJECT_ID":"2025-259L","EPOCH":"2026-03-09T22:45:45.286848","MEAN_MOTION":15.27602924,"ECCENTRICITY":0.00020187,"INCLINATION":43.0062,"RA_OF_ASC_NODE":272.6467,"ARG_OF_PERICENTER":282.9633,"MEAN_ANOMALY":77.0994,"EPHEMERIS_TYPE":0,"CLASSIFICATION_TYPE":"U","NORAD_CAT_ID":66432,"ELEMENT_SET_NO":999,"REV_AT_EPOCH":1953,"BSTAR":0.00084947857,"MEAN_MOTION_DOT":0.00023204,"MEAN_MOTION_DDOT":0}]
